#cP2023  1  1  0  0  0.00000000     286 d     IGS20 FIT MIT 
## 2243      0.00000000   300.00000000 59945 0.0000000000000
+   57   E01E02E03E04E05E07E08E09E10E11E12E13E14E15E18E19E21
+        E24E25E26E27E30E31E33E34E36G01G02G03G04G05G06G07G08
+        G09G10G11G12G13G14G15G16G17G18G19G20G21G22G23G24G25
+        G26G27G29G30G31G32  0  0  0  0  0  0  0  0  0  0  0
+          0  0  0  0  0  0  0  0  0  0  0  0  0  0  0  0  0
++         4  4  4  4  4  3  4  3  4  4  5  4  4  3  4  4  4
++         4  3  4  4  4  4  4  3  3  4  5  4  4  5  4  3  4
++         4  4  3  4  3  3  4  5  4  4  4  4  4  4  5  4  4
++         4  4  5  3  4  3  0  0  0  0  0  0  0  0  0  0  0
++         0  0  0  0  0  0  0  0  0  0  0  0  0  0  0  0  0
%c  M cc GPS ccc cccc cccc cccc cccc ccccc ccccc ccccc ccccc
%c cc cc ccc ccc cccc cccc cccc cccc ccccc ccccc ccccc ccccc
%f  1.2500000  1.025000000  0.00000000000  0.000000000000000
%f  1.2500000  1.025000000  0.00000000000  0.000000000000000
%i    0    0    0    0      0      0      0      0         0
%i    0    0    0    0      0      0      0      0         0
/* Created with sh_mergesp3 Fri Jan 13 01:19:07 UTC 2023    
/* Input: mie22430.sp3 mit22430.sp3 
/*                                                          
/* PCV:IGS20_2239 OL/AL:FES2014B NONE     YN ORB:CoN CLK:CoN
*  2023  1  1 21 30  0.00000000
PE01   1193.663107 -16784.654879  24349.429025   -588.364692
PE02   -759.447576  16863.343449 -24322.165225     12.145965
PE03   2274.630195  28095.903180   9018.236456   -635.721416
PE04 -14450.911668 -24143.080599   9183.254548    -26.977004
PE05 -11535.678285  15607.246183  22348.790634   -109.311369
PE07  18412.338477   5856.337637 -22423.173018    -11.864810
PE08  14421.806558  24173.289700  -9152.075889    -12.503678
PE09 -18318.621688  -6093.786965  22437.434789   -785.025933
PE10 -16199.414501  -5307.122324 -24197.185549   -502.047390
PE11 -21686.816066   5060.491213 -19507.737617    272.304855
PE12  -8818.091538 -13970.007627 -24554.270111   -367.176724
PE13  21304.894435  -4244.434177  20114.084779    430.140153
PE14   9021.956861 -20410.985153  15008.998901    101.410088
PE15   8504.299829  14181.237017  24563.462434    696.986455
PE18 -17089.947621  10530.477088 -22248.305190   -558.859920
PE19   -283.387280 -27308.217992 -11405.691449  -3593.600489
PE21  20145.779668  -9251.448928  19616.516389   -503.790647
PE24 -29079.919078  -4833.974164  -2507.893862  -1034.568290
PE25 -20389.022670   9071.707299 -19437.522597   -596.269960
PE26  21246.574189 -20381.511180   3087.334251  -1863.934386
PE27  29126.280931   4143.718980   3352.768710   -477.469295
PE30  20228.260569  15335.588327 -15256.035308  -1126.018142
PE31 -20852.941628 -14969.603929  14733.601354   -512.210632
PE33   9236.448571 -24104.107628 -14470.095586   -454.964471
PE34  -9037.111421  24095.107786  14620.860739    -22.664048
PE36 -21478.607327  19992.246980  -3910.262846   -484.154859
PG01  11688.478980 -20936.865061 -11341.693092    229.830783
PG02  -7474.723063  22194.514480  13364.794992   -629.788345
PG03   4445.360845 -14235.527053 -22100.255975   -374.195801
PG04   1651.735025 -24698.540583  -9476.949610    -57.150755
PG05 -19014.193154   7385.548748  16901.789835   -110.360341
PG06 -18027.766103   -655.872502 -19453.071250    551.323816
PG07  -2465.300505 -17478.740539  20127.737559    265.546137
PG08   8640.628026 -17015.406259  18260.468632   -101.540032
PG09  -7547.209817 -25410.721101   1118.899623   -243.693755
PG10  23129.676567  11586.636182   6879.182690    -18.628412
PG11 -22411.010022   9906.204521 -10195.520473    -69.261435
PG12  -6714.076452  13697.135027 -22014.358835   -323.021501
PG13 -13301.710637   9576.561643  20682.242786    452.152749
PG14 -21276.824010 -13510.352377   8578.257231    -57.598705
PG15  -6682.210939  18385.625560  17392.677418      0.973456
PG16  22161.157878  -2064.602190  14547.524349   -524.979636
PG17 -12428.138043 -19077.604357 -13161.370576    690.355093
PG18   4314.482353  15529.094807  21087.417623    -82.222506
PG19 -15107.675613  -8347.347149 -20489.670660    258.440758
PG20 -25517.770290   1760.976131   6744.176525    459.753817
PG21  16591.406303 -20088.257846  -1322.868564    153.108394
PG22  15372.552199   4588.605834 -20773.089804    397.029276
PG23  14804.977872  15218.011951  16046.095882      1.330713
PG24 -13003.240041  22036.769780  -6590.136529    -11.136391
PG25   4757.256582  16519.742464 -20619.340683    407.491748
PG26  26305.231645   3709.021389   2984.372054    239.580057
PG27  14019.350956  -5278.042918  21686.783957    137.770638
PG29   3564.601580  26256.375357  -1068.360234   -577.859998
PG30 -13587.937039  -8723.770516  21204.503554   -534.255880
PG31  19647.584212   -401.226188 -18238.460653   -205.068295
PG32  14942.037531  15895.622903 -15131.059998   -349.951613
*  2023  1  1 21 35  0.00000000
PE01   1910.923592 -16629.057874  24410.699602   -588.366792
PE02  -1475.430534  16707.175575 -24396.332303     12.146644
PE03   2197.762854  27822.093114   9847.502492   -635.722561
PE04 -14545.917770 -24389.380712   8343.851364    -26.979474
PE05 -11743.001505  14962.286754  22679.320552   -109.310265
PE07  18627.309177   6490.225178 -22068.240437    -11.865741
PE08  14521.794502  24416.778522  -8308.205399    -12.505538
PE09 -18537.463574  -6726.859254  22074.137030   -785.029955
PE10 -15706.700476  -5849.417441 -24396.321483   -502.048216
PE11 -21268.621890   4634.456812 -20065.771096    272.356080
PE12  -8333.668382 -14527.063245 -24399.391089   -367.183355
PE13  20875.880644  -3804.199319  20645.354111    430.140095
PE14   9176.319458 -19717.449958  15504.946098    101.413326
PE15   8022.787738  14739.668596  24396.159963    696.985697
PE18 -17283.366282   9990.154931 -22551.138337   -558.846634
PE19   -188.820121 -26965.399901 -12196.003550  -3593.571791
PE21  20718.676632  -9146.776205  19061.400277   -503.791325
PE24 -29144.919786  -4823.996436  -1603.190865  -1034.574591
PE25 -20956.671211   8968.017945 -18873.494831   -596.270228
PE26  21142.278061 -20331.805472   3999.351499  -1863.931045
PE27  29217.164459   4136.018735   2450.767214   -477.472058
PE30  19773.889721  15218.128150 -15953.373256  -1126.027400
PE31 -20412.812279 -14855.736830  15448.348396   -512.210942
PE33   9486.645906 -24450.606173 -13707.207267   -454.964330
PE34  -9289.602576  24444.955950  13861.907820    -22.664627
PE36 -21353.141335  19927.095577  -4821.355085   -484.156578
PG01  12020.634964 -21173.859799 -10489.763295    229.829340
PG02  -7819.272618  22506.074184  12593.251752   -629.787620
PG03   5244.063587 -14005.951834 -22068.503228   -374.195442
PG04   1807.332457 -24345.095331 -10327.856053    -57.148507
PG05 -19625.628003   7188.275821  16286.362917   -110.360676
PG06 -17503.529328  -1194.649013 -19897.033843    551.325885
PG07  -1905.164134 -17960.231954  19738.401527    265.544607
PG08   8882.025036 -16343.197232  18761.844881   -101.540423
PG09  -7466.646363 -25461.443011    169.488284   -243.691799
PG10  22854.612997  11568.587610   7782.001071    -18.628617
PG11 -22153.896264   9585.095805 -11030.372657    -69.263864
PG12  -7480.465998  13413.620455 -21937.756394   -323.022370
PG13 -13417.343321   8778.444019  20963.009952    452.154646
PG14 -20925.490627 -13485.282139   9435.858061    -57.596539
PG15  -7011.063041  17757.735598  17903.643669      0.974395
PG16  22655.933484  -1819.331511  13828.327840   -524.979514
PG17 -12461.145015 -19588.648473 -12379.582459    690.355972
PG18   3716.386332  16057.220888  20799.648317    -82.226970
PG19 -15191.829513  -9097.547249 -20107.805088    258.442627
PG20 -25745.920808   1635.656136   5838.280639    459.752786
PG21  16706.751469 -20059.997939   -354.931524    153.108731
PG22  15484.027997   5395.913958 -20505.220870    397.031635
PG23  14191.304435  15111.713066  16684.055164      1.331036
PG24 -13237.059564  22131.266164  -5687.717932    -11.141448
PG25   4008.854295  16340.366040 -20915.339284    407.492829
PG26  26381.409627   3827.009750   2061.964965    239.580303
PG27  14238.135089  -4463.631200  21738.686661    137.767798
PG29   3486.086683  26211.732735  -2031.660691   -577.860681
PG30 -13010.821277  -9286.549207  21319.928007   -534.255579
PG31  19169.166829     97.498504 -18735.787178   -205.068486
PG32  15028.201261  16461.607023 -14437.764209   -349.955406
EOF
